[{"OBJECT_NAME":"JILIN-1 GAOFEN 03D50","OBJECT_ID":"2022-167J","EPOCH":"2026-03-09T22:35:59.947584","MEAN_MOTION":15.32279726,"ECCENTRICITY":0.00065764,"INCLINATION":97.6731,"RA_OF_ASC_NODE":232.9458,"ARG_OF_PERICENTER":101.1473,"MEAN_ANOMALY":259.0507,"EPHEMERIS_TYPE":0,"CLASSIFICATION_TYPE":"U","NORAD_CAT_ID":54690,"ELEMENT_SET_NO":999,"REV_AT_EPOCH":18014,"BSTAR":0.00049467973,"MEAN_MOTION_DOT":0.00015359,"MEAN_MOTION_DDOT":0},{"OBJECT_NAME":"STARLINK-34612","OBJECT_ID":"2025-147U","EPOCH":"2026-03-09T17:53:22.946208","MEAN_MOTION":15.30242285,"ECCENTRICITY":0.00013478,"INCLINATION":53.159,"RA_OF_ASC_NODE":242.2542,"ARG_OF_PERICENTER":93.9786,"MEAN_ANOMALY":266.1369,"EPHEMERIS_TYPE":0,"CLASSIFICATION_TYPE":"U","NORAD_CAT_ID":64773,"ELEMENT_SET_NO":999,"REV_AT_EPOCH":3876,"BSTAR":0.0011022644,"MEAN_MOTION_DOT":0.00032472,"MEAN_MOTION_DDOT":0}]
